0 COSMOS 2251 DEB
1 37338U 93036BLE 13292.83999738  .00010345  00000-0  16944-2 0  1113
2 37338 073.9948 352.6396 0068411 218.5207 147.2457 14.69286266217263
